ONEWEB-0685             
1 54679U 22166AP  24319.48513400  .00000148  00000+0  32573-3 0  9997
2 54679  87.9322 359.4647 0002118  98.8531 261.2843 13.21828309 95308
ONEWEB-0712             
1 54680U 22166AQ  24318.59524517  .00000072  00000+0  15351-3 0  9992
2 54680  87.9097 344.4350 0002438  87.2005 272.9405 13.16592483 96126
ONEWEB-0714             
1 54681U 22166AR  24318.65877865  .00000316  00000+0  73376-3 0  9999
2 54681  87.9326 359.6175 0001968 102.4073 257.7282 13.21826992 94849
ONEWEB-0532             
1 55140U 23004A   24318.72911074  .00000034  00000+0  55084-4 0  9995
2 55140  87.9073 121.4940 0001270 111.3055 248.8212 13.17644692 91143
ONEWEB-0533             
1 55141U 23004B   24318.68270079 -.00000256  00000+0 -74751-3 0  9993
2 55141  87.8862 106.2475 0001665  97.0694 263.0624 13.12445090 91917
ONEWEB-0541             
1 55142U 23004C   24319.47943540  .00000451  00000+0  12358-2 0  9991
2 55142  87.8882 136.5502 0001504  89.5107 270.6193 13.11417632 89972
ONEWEB-0543             
1 55143U 23004D   24319.39192764 -.00001751  00000+0 -44759-2 0  9993
2 55143  87.9083  90.9118 0001615  88.1767 271.9550 13.18684601 93282
ONEWEB-0544             
1 55144U 23004E   24319.38558722 -.00000396  00000+0 -10384-2 0  9994
2 55144  87.9087  90.9010 0001516  91.5472 268.5834 13.18685712 93280
